CCSDS_OMM_VERS = 2.0
CREATION_DATE  = 
ORIGINATOR     = 

OBJECT_NAME    = UNKNOWN
OBJECT_ID      = 
CENTER_NAME    = EARTH
REF_FRAME      = TEME
TIME_SYSTEM    = UTC
MEAN_ELEMENT_THEORY = SGP/SGP4

EPOCH          = 2026-01-16T06:30:30.020256
MEAN_MOTION    = 12.95832213
ECCENTRICITY   = .0029813
INCLINATION    = 90.2867
RA_OF_ASC_NODE = 30.2897
ARG_OF_PERICENTER = 153.7498
MEAN_ANOMALY   = 206.5141

EPHEMERIS_TYPE = 0
CLASSIFICATION_TYPE = U
NORAD_CAT_ID   = 270327
ELEMENT_SET_NO = 999
REV_AT_EPOCH   = 24656
BSTAR          = .66429064E-3
MEAN_MOTION_DOT = .196E-5
MEAN_MOTION_DDOT = 0

CCSDS_OMM_VERS = 2.0
CREATION_DATE  = 
ORIGINATOR     = 

OBJECT_NAME    = UNKNOWN
OBJECT_ID      = 
CENTER_NAME    = EARTH
REF_FRAME      = TEME
TIME_SYSTEM    = UTC
MEAN_ELEMENT_THEORY = SGP/SGP4

EPOCH          = 2026-01-16T02:29:31.305120
MEAN_MOTION    = 12.95167080
ECCENTRICITY   = .01878272
INCLINATION    = 63.4597
RA_OF_ASC_NODE = 309.9744
ARG_OF_PERICENTER = 3.9538
MEAN_ANOMALY   = 356.2896

EPHEMERIS_TYPE = 0
CLASSIFICATION_TYPE = U
NORAD_CAT_ID   = 270328
ELEMENT_SET_NO = 999
REV_AT_EPOCH   = 26707
BSTAR          = .13869193E-2
MEAN_MOTION_DOT = .344E-5
MEAN_MOTION_DDOT = 0

CCSDS_OMM_VERS = 2.0
CREATION_DATE  = 
ORIGINATOR     = 

OBJECT_NAME    = UNKNOWN
OBJECT_ID      = 
CENTER_NAME    = EARTH
REF_FRAME      = TEME
TIME_SYSTEM    = UTC
MEAN_ELEMENT_THEORY = SGP/SGP4

EPOCH          = 2026-01-16T04:25:22.147104
MEAN_MOTION    = 14.37031434
ECCENTRICITY   = .00020044
INCLINATION    = 86.3973
RA_OF_ASC_NODE = 352.6224
ARG_OF_PERICENTER = 81.9999
MEAN_ANOMALY   = 278.1426

EPHEMERIS_TYPE = 0
CLASSIFICATION_TYPE = U
NORAD_CAT_ID   = 270329
ELEMENT_SET_NO = 999
REV_AT_EPOCH   = 25989
BSTAR          = .13872099E-3
MEAN_MOTION_DOT = .431E-5
MEAN_MOTION_DDOT = 0

CCSDS_OMM_VERS = 2.0
CREATION_DATE  = 
ORIGINATOR     = 

OBJECT_NAME    = UNKNOWN
OBJECT_ID      = 
CENTER_NAME    = EARTH
REF_FRAME      = TEME
TIME_SYSTEM    = UTC
MEAN_ELEMENT_THEORY = SGP/SGP4

EPOCH          = 2026-01-14T11:06:22.250592
MEAN_MOTION    = 13.42037998
ECCENTRICITY   = .00485792
INCLINATION    = 100.3031
RA_OF_ASC_NODE = 193.7891
ARG_OF_PERICENTER = 232.7815
MEAN_ANOMALY   = 126.8875

EPHEMERIS_TYPE = 0
CLASSIFICATION_TYPE = U
NORAD_CAT_ID   = 270330
ELEMENT_SET_NO = 999
REV_AT_EPOCH   = 25186
BSTAR          = .2741951E-2
MEAN_MOTION_DOT = .1504E-4
MEAN_MOTION_DDOT = 0

CCSDS_OMM_VERS = 2.0
CREATION_DATE  = 
ORIGINATOR     = 

OBJECT_NAME    = UNKNOWN
OBJECT_ID      = 
CENTER_NAME    = EARTH
REF_FRAME      = TEME
TIME_SYSTEM    = UTC
MEAN_ELEMENT_THEORY = SGP/SGP4

EPOCH          = 2026-01-16T06:10:26.342976
MEAN_MOTION    = 14.52974637
ECCENTRICITY   = .00998936
INCLINATION    = 86.4381
RA_OF_ASC_NODE = 208.6939
ARG_OF_PERICENTER = 323.1064
MEAN_ANOMALY   = 36.3297

EPHEMERIS_TYPE = 0
CLASSIFICATION_TYPE = U
NORAD_CAT_ID   = 270332
ELEMENT_SET_NO = 999
REV_AT_EPOCH   = 1042
BSTAR          = .15951533E-2
MEAN_MOTION_DOT = .7046E-4
MEAN_MOTION_DDOT = 0

CCSDS_OMM_VERS = 2.0
CREATION_DATE  = 
ORIGINATOR     = 

OBJECT_NAME    = UNKNOWN
OBJECT_ID      = 
CENTER_NAME    = EARTH
REF_FRAME      = TEME
TIME_SYSTEM    = UTC
MEAN_ELEMENT_THEORY = SGP/SGP4

EPOCH          = 2026-01-12T14:58:32.217600
MEAN_MOTION    = 14.28972648
ECCENTRICITY   = .02113475
INCLINATION    = 97.7177
RA_OF_ASC_NODE = 147.1647
ARG_OF_PERICENTER = 184.1791
MEAN_ANOMALY   = 175.7636

EPHEMERIS_TYPE = 0
CLASSIFICATION_TYPE = U
NORAD_CAT_ID   = 270333
ELEMENT_SET_NO = 999
REV_AT_EPOCH   = 5202
BSTAR          = .22278283E-2
MEAN_MOTION_DOT = .7131E-4
MEAN_MOTION_DDOT = 0

CCSDS_OMM_VERS = 2.0
CREATION_DATE  = 
ORIGINATOR     = 

OBJECT_NAME    = UNKNOWN
OBJECT_ID      = 
CENTER_NAME    = EARTH
REF_FRAME      = TEME
TIME_SYSTEM    = UTC
MEAN_ELEMENT_THEORY = SGP/SGP4

EPOCH          = 2026-01-12T23:49:19.361280
MEAN_MOTION    = 14.15554635
ECCENTRICITY   = .01805209
INCLINATION    = 86.4508
RA_OF_ASC_NODE = 285.3837
ARG_OF_PERICENTER = 85.1270
MEAN_ANOMALY   = 277.0500

EPHEMERIS_TYPE = 0
CLASSIFICATION_TYPE = U
NORAD_CAT_ID   = 270334
ELEMENT_SET_NO = 999
REV_AT_EPOCH   = 28607
BSTAR          = .332471E-2
MEAN_MOTION_DOT = .7636E-4
MEAN_MOTION_DDOT = 0

CCSDS_OMM_VERS = 2.0
CREATION_DATE  = 
ORIGINATOR     = 

OBJECT_NAME    = UNKNOWN
OBJECT_ID      = 
CENTER_NAME    = EARTH
REF_FRAME      = TEME
TIME_SYSTEM    = UTC
MEAN_ELEMENT_THEORY = SGP/SGP4

EPOCH          = 2026-01-07T15:30:37.284768
MEAN_MOTION    = 14.14615639
ECCENTRICITY   = .0073098
INCLINATION    = 66.6641
RA_OF_ASC_NODE = 136.8952
ARG_OF_PERICENTER = 47.0428
MEAN_ANOMALY   = 313.6761

EPHEMERIS_TYPE = 0
CLASSIFICATION_TYPE = U
NORAD_CAT_ID   = 270335
ELEMENT_SET_NO = 999
REV_AT_EPOCH   = 24083
BSTAR          = .29944E-3
MEAN_MOTION_DOT = .509E-5
MEAN_MOTION_DDOT = 0

CCSDS_OMM_VERS = 2.0
CREATION_DATE  = 
ORIGINATOR     = 

OBJECT_NAME    = UNKNOWN
OBJECT_ID      = 
CENTER_NAME    = EARTH
REF_FRAME      = TEME
TIME_SYSTEM    = UTC
MEAN_ELEMENT_THEORY = SGP/SGP4

EPOCH          = 2026-01-16T15:24:07.458336
MEAN_MOTION    = 14.25863174
ECCENTRICITY   = .0011912
INCLINATION    = 81.2875
RA_OF_ASC_NODE = 153.0644
ARG_OF_PERICENTER = 211.8110
MEAN_ANOMALY   = 148.2351

EPHEMERIS_TYPE = 0
CLASSIFICATION_TYPE = U
NORAD_CAT_ID   = 270336
ELEMENT_SET_NO = 999
REV_AT_EPOCH   = 24042
BSTAR          = .8434087E-3
MEAN_MOTION_DOT = .202E-4
MEAN_MOTION_DDOT = 0

CCSDS_OMM_VERS = 2.0
CREATION_DATE  = 
ORIGINATOR     = 

OBJECT_NAME    = UNKNOWN
OBJECT_ID      = 
CENTER_NAME    = EARTH
REF_FRAME      = TEME
TIME_SYSTEM    = UTC
MEAN_ELEMENT_THEORY = SGP/SGP4

EPOCH          = 2026-01-12T06:14:26.873664
MEAN_MOTION    = 13.04718522
ECCENTRICITY   = .00309347
INCLINATION    = 90.1585
RA_OF_ASC_NODE = 5.4328
ARG_OF_PERICENTER = 163.0333
MEAN_ANOMALY   = 197.1834

EPHEMERIS_TYPE = 0
CLASSIFICATION_TYPE = U
NORAD_CAT_ID   = 270337
ELEMENT_SET_NO = 999
REV_AT_EPOCH   = 22200
BSTAR          = .25464973E-2
MEAN_MOTION_DOT = .829E-5
MEAN_MOTION_DDOT = 0

CCSDS_OMM_VERS = 2.0
CREATION_DATE  = 
ORIGINATOR     = 

OBJECT_NAME    = UNKNOWN
OBJECT_ID      = 
CENTER_NAME    = EARTH
REF_FRAME      = TEME
TIME_SYSTEM    = UTC
MEAN_ELEMENT_THEORY = SGP/SGP4

EPOCH          = 2026-01-11T15:14:41.796672
MEAN_MOTION    = 13.84123387
ECCENTRICITY   = .0147177
INCLINATION    = 99.0949
RA_OF_ASC_NODE = 333.2216
ARG_OF_PERICENTER = 92.8481
MEAN_ANOMALY   = 268.9529

EPHEMERIS_TYPE = 0
CLASSIFICATION_TYPE = U
NORAD_CAT_ID   = 270338
ELEMENT_SET_NO = 999
REV_AT_EPOCH   = 23123
BSTAR          = .51602247E-3
MEAN_MOTION_DOT = .584E-5
MEAN_MOTION_DDOT = 0

CCSDS_OMM_VERS = 2.0
CREATION_DATE  = 
ORIGINATOR     = 

OBJECT_NAME    = UNKNOWN
OBJECT_ID      = 
CENTER_NAME    = EARTH
REF_FRAME      = TEME
TIME_SYSTEM    = UTC
MEAN_ELEMENT_THEORY = SGP/SGP4

EPOCH          = 2026-01-13T09:21:27.878400
MEAN_MOTION    = 12.16096579
ECCENTRICITY   = .08424236
INCLINATION    = 83.2294
RA_OF_ASC_NODE = 262.9413
ARG_OF_PERICENTER = 199.4722
MEAN_ANOMALY   = 157.2286

EPHEMERIS_TYPE = 0
CLASSIFICATION_TYPE = U
NORAD_CAT_ID   = 270339
ELEMENT_SET_NO = 999
REV_AT_EPOCH   = 20609
BSTAR          = -.18358529E-2
MEAN_MOTION_DOT = -.543E-5
MEAN_MOTION_DDOT = 0

CCSDS_OMM_VERS = 2.0
CREATION_DATE  = 
ORIGINATOR     = 

OBJECT_NAME    = UNKNOWN
OBJECT_ID      = 
CENTER_NAME    = EARTH
REF_FRAME      = TEME
TIME_SYSTEM    = UTC
MEAN_ELEMENT_THEORY = SGP/SGP4

EPOCH          = 2026-01-09T10:11:50.584992
MEAN_MOTION    = 13.83819131
ECCENTRICITY   = .01462947
INCLINATION    = 98.8119
RA_OF_ASC_NODE = 250.1749
ARG_OF_PERICENTER = 50.3848
MEAN_ANOMALY   = 311.0118

EPHEMERIS_TYPE = 0
CLASSIFICATION_TYPE = U
NORAD_CAT_ID   = 270340
ELEMENT_SET_NO = 999
REV_AT_EPOCH   = 23157
BSTAR          = .4874953E-3
MEAN_MOTION_DOT = .547E-5
MEAN_MOTION_DDOT = 0

CCSDS_OMM_VERS = 2.0
CREATION_DATE  = 
ORIGINATOR     = 

OBJECT_NAME    = UNKNOWN
OBJECT_ID      = 
CENTER_NAME    = EARTH
REF_FRAME      = TEME
TIME_SYSTEM    = UTC
MEAN_ELEMENT_THEORY = SGP/SGP4

EPOCH          = 2026-01-07T00:24:57.964320
MEAN_MOTION    = 12.02158007
ECCENTRICITY   = .09247535
INCLINATION    = 83.2344
RA_OF_ASC_NODE = 279.0994
ARG_OF_PERICENTER = 10.0835
MEAN_ANOMALY   = 351.7442

EPHEMERIS_TYPE = 0
CLASSIFICATION_TYPE = U
NORAD_CAT_ID   = 270341
ELEMENT_SET_NO = 999
REV_AT_EPOCH   = 19275
BSTAR          = .92853513E-2
MEAN_MOTION_DOT = .2756E-4
MEAN_MOTION_DDOT = 0

CCSDS_OMM_VERS = 2.0
CREATION_DATE  = 
ORIGINATOR     = 

OBJECT_NAME    = UNKNOWN
OBJECT_ID      = 
CENTER_NAME    = EARTH
REF_FRAME      = TEME
TIME_SYSTEM    = UTC
MEAN_ELEMENT_THEORY = SGP/SGP4

EPOCH          = 2026-01-12T04:44:08.628576
MEAN_MOTION    = 14.21183063
ECCENTRICITY   = .00979517
INCLINATION    = 98.6828
RA_OF_ASC_NODE = 282.9890
ARG_OF_PERICENTER = 193.5381
MEAN_ANOMALY   = 166.3166

EPHEMERIS_TYPE = 0
CLASSIFICATION_TYPE = U
NORAD_CAT_ID   = 270342
ELEMENT_SET_NO = 999
REV_AT_EPOCH   = 22691
BSTAR          = .18532283E-2
MEAN_MOTION_DOT = .419E-4
MEAN_MOTION_DDOT = 0

CCSDS_OMM_VERS = 2.0
CREATION_DATE  = 
ORIGINATOR     = 

OBJECT_NAME    = UNKNOWN
OBJECT_ID      = 
CENTER_NAME    = EARTH
REF_FRAME      = TEME
TIME_SYSTEM    = UTC
MEAN_ELEMENT_THEORY = SGP/SGP4

EPOCH          = 2026-01-16T08:43:12.523296
MEAN_MOTION    = 12.45526633
ECCENTRICITY   = .0716152
INCLINATION    = 83.4062
RA_OF_ASC_NODE = 65.9993
ARG_OF_PERICENTER = 264.8921
MEAN_ANOMALY   = 87.0114

EPHEMERIS_TYPE = 0
CLASSIFICATION_TYPE = U
NORAD_CAT_ID   = 270343
ELEMENT_SET_NO = 999
REV_AT_EPOCH   = 19835
BSTAR          = .48308759E-2
MEAN_MOTION_DOT = .1742E-4
MEAN_MOTION_DDOT = 0

